[
  {
    "OBJECT_NAME": "STARLINK-34254",
    "OBJECT_ID": "25111P",
    "EPOCH": "2025-11-11T06:04:10.553952",
    "MEAN_MOTION": 15.27611251,
    "ECCENTRICITY": 0.0001007,
    "INCLINATION": 43.0031,
    "RA_OF_ASC_NODE": 26.4225,
    "ARG_OF_PERICENTER": 226.7415,
    "MEAN_ANOMALY": 133.3352,
    "EPHEMERIS_TYPE": 0,
    "CLASSIFICATION_TYPE": "U",
    "NORAD_CAT_ID": 64136,
    "ELEMENT_SET_NO": 999,
    "REV_AT_EPOCH": 2735,
    "BSTAR": 0.0020437,
    "MEAN_MOTION_DOT": 0.00056461,
    "MEAN_MOTION_DDOT": 0.0,
    "TLE_LINE1": "1 64136U 25111P   25315.25289993  .00056461  00000+0  20437-2 0  9992",
    "TLE_LINE2": "2 64136  43.0031  26.4225 0001007 226.7415 133.3352 15.27611251 27357",
    "COMMENT": "Grouped by shell and plane from TLE"
  },
  {
    "OBJECT_NAME": "STARLINK-34230",
    "OBJECT_ID": "25111Q",
    "EPOCH": "2025-11-11T05:16:16.998816",
    "MEAN_MOTION": 15.27604381,
    "ECCENTRICITY": 0.0001073,
    "INCLINATION": 42.9978,
    "RA_OF_ASC_NODE": 27.0361,
    "ARG_OF_PERICENTER": 293.5637,
    "MEAN_ANOMALY": 66.5102,
    "EPHEMERIS_TYPE": 0,
    "CLASSIFICATION_TYPE": "U",
    "NORAD_CAT_ID": 64137,
    "ELEMENT_SET_NO": 999,
    "REV_AT_EPOCH": 2734,
    "BSTAR": 0.0015686,
    "MEAN_MOTION_DOT": 0.00043187,
    "MEAN_MOTION_DDOT": 0.0,
    "TLE_LINE1": "1 64137U 25111Q   25315.21964119  .00043187  00000+0  15686-2 0  9990",
    "TLE_LINE2": "2 64137  42.9978  27.0361 0001073 293.5637  66.5102 15.27604381 27340",
    "COMMENT": "Grouped by shell and plane from TLE"
  },
  {
    "OBJECT_NAME": "STARLINK-34129",
    "OBJECT_ID": "25111R",
    "EPOCH": "2025-11-11T05:27:22.910400",
    "MEAN_MOTION": 15.27629575,
    "ECCENTRICITY": 7.27e-05,
    "INCLINATION": 42.9993,
    "RA_OF_ASC_NODE": 27.0968,
    "ARG_OF_PERICENTER": 207.7381,
    "MEAN_ANOMALY": 152.3432,
    "EPHEMERIS_TYPE": 0,
    "CLASSIFICATION_TYPE": "U",
    "NORAD_CAT_ID": 64138,
    "ELEMENT_SET_NO": 999,
    "REV_AT_EPOCH": 2739,
    "BSTAR": 0.0015966,
    "MEAN_MOTION_DOT": 0.00044002,
    "MEAN_MOTION_DDOT": 0.0,
    "TLE_LINE1": "1 64138U 25111R   25315.22734850  .00044002  00000+0  15966-2 0  9997",
    "TLE_LINE2": "2 64138  42.9993  27.0968 0000727 207.7381 152.3432 15.27629575 27396",
    "COMMENT": "Grouped by shell and plane from TLE"
  },
  {
    "OBJECT_NAME": "STARLINK-34212",
    "OBJECT_ID": "25111S",
    "EPOCH": "2025-11-11T04:44:49.403328",
    "MEAN_MOTION": 15.27610476,
    "ECCENTRICITY": 0.0001102,
    "INCLINATION": 43.0029,
    "RA_OF_ASC_NODE": 26.8728,
    "ARG_OF_PERICENTER": 272.6754,
    "MEAN_ANOMALY": 87.3972,
    "EPHEMERIS_TYPE": 0,
    "CLASSIFICATION_TYPE": "U",
    "NORAD_CAT_ID": 64139,
    "ELEMENT_SET_NO": 999,
    "REV_AT_EPOCH": 2734,
    "BSTAR": 0.0014115,
    "MEAN_MOTION_DOT": 0.0003882,
    "MEAN_MOTION_DDOT": 0.0,
    "TLE_LINE1": "1 64139U 25111S   25315.19779402  .00038820  00000+0  14115-2 0  9992",
    "TLE_LINE2": "2 64139  43.0029  26.8728 0001102 272.6754  87.3972 15.27610476 27344",
    "COMMENT": "Grouped by shell and plane from TLE"
  },
  {
    "OBJECT_NAME": "STARLINK-34149",
    "OBJECT_ID": "25111T",
    "EPOCH": "2025-11-11T04:59:37.699872",
    "MEAN_MOTION": 15.27614324,
    "ECCENTRICITY": 0.0002288,
    "INCLINATION": 43.0014,
    "RA_OF_ASC_NODE": 26.9511,
    "ARG_OF_PERICENTER": 280.8124,
    "MEAN_ANOMALY": 79.247,
    "EPHEMERIS_TYPE": 0,
    "CLASSIFICATION_TYPE": "U",
    "NORAD_CAT_ID": 64140,
    "ELEMENT_SET_NO": 999,
    "REV_AT_EPOCH": 2734,
    "BSTAR": 0.0022125,
    "MEAN_MOTION_DOT": 0.00061194,
    "MEAN_MOTION_DDOT": 0.0,
    "TLE_LINE1": "1 64140U 25111T   25315.20807523  .00061194  00000+0  22125-2 0  9992",
    "TLE_LINE2": "2 64140  43.0014  26.9511 0002288 280.8124  79.2470 15.27614324 27348",
    "COMMENT": "Grouped by shell and plane from TLE"
  },
  {
    "OBJECT_NAME": "STARLINK-34054",
    "OBJECT_ID": "25111U",
    "EPOCH": "2025-11-11T04:55:56.493408",
    "MEAN_MOTION": 15.27591803,
    "ECCENTRICITY": 8.79e-05,
    "INCLINATION": 42.999,
    "RA_OF_ASC_NODE": 26.9323,
    "ARG_OF_PERICENTER": 280.7069,
    "MEAN_ANOMALY": 79.3683,
    "EPHEMERIS_TYPE": 0,
    "CLASSIFICATION_TYPE": "U",
    "NORAD_CAT_ID": 64141,
    "ELEMENT_SET_NO": 999,
    "REV_AT_EPOCH": 2734,
    "BSTAR": 0.0021355,
    "MEAN_MOTION_DOT": 0.00058995,
    "MEAN_MOTION_DDOT": 0.0,
    "TLE_LINE1": "1 64141U 25111U   25315.20551497  .00058995  00000+0  21355-2 0  9998",
    "TLE_LINE2": "2 64141  42.9990  26.9323 0000879 280.7069  79.3683 15.27591803 27345",
    "COMMENT": "Grouped by shell and plane from TLE"
  },
  {
    "OBJECT_NAME": "STARLINK-34195",
    "OBJECT_ID": "25111V",
    "EPOCH": "2025-11-11T06:13:25.925376",
    "MEAN_MOTION": 15.27617209,
    "ECCENTRICITY": 0.0001524,
    "INCLINATION": 43.0042,
    "RA_OF_ASC_NODE": 26.471,
    "ARG_OF_PERICENTER": 272.0617,
    "MEAN_ANOMALY": 88.006,
    "EPHEMERIS_TYPE": 0,
    "CLASSIFICATION_TYPE": "U",
    "NORAD_CAT_ID": 64142,
    "ELEMENT_SET_NO": 999,
    "REV_AT_EPOCH": 2735,
    "BSTAR": 0.0019951,
    "MEAN_MOTION_DOT": 0.00055114,
    "MEAN_MOTION_DDOT": 0.0,
    "TLE_LINE1": "1 64142U 25111V   25315.25932784  .00055114  00000+0  19951-2 0  9995",
    "TLE_LINE2": "2 64142  43.0042  26.4710 0001524 272.0617  88.0060 15.27617209 27358",
    "COMMENT": "Grouped by shell and plane from TLE"
  },
  {
    "OBJECT_NAME": "STARLINK-34133",
    "OBJECT_ID": "25111W",
    "EPOCH": "2025-11-11T04:33:43.277472",
    "MEAN_MOTION": 15.27609031,
    "ECCENTRICITY": 5.61e-05,
    "INCLINATION": 43.0001,
    "RA_OF_ASC_NODE": 26.8099,
    "ARG_OF_PERICENTER": 135.1336,
    "MEAN_ANOMALY": 224.9561,
    "EPHEMERIS_TYPE": 0,
    "CLASSIFICATION_TYPE": "U",
    "NORAD_CAT_ID": 64143,
    "ELEMENT_SET_NO": 999,
    "REV_AT_EPOCH": 2734,
    "BSTAR": 0.0018629000000000002,
    "MEAN_MOTION_DOT": 0.00051403,
    "MEAN_MOTION_DDOT": 0.0,
    "TLE_LINE1": "1 64143U 25111W   25315.19008423  .00051403  00000+0  18629-2 0  9991",
    "TLE_LINE2": "2 64143  43.0001  26.8099 0000561 135.1336 224.9561 15.27609031 27345",
    "COMMENT": "Grouped by shell and plane from TLE"
  },
  {
    "OBJECT_NAME": "STARLINK-34181",
    "OBJECT_ID": "25111X",
    "EPOCH": "2025-11-11T05:05:10.776192",
    "MEAN_MOTION": 15.27593334,
    "ECCENTRICITY": 0.0001769,
    "INCLINATION": 43.0004,
    "RA_OF_ASC_NODE": 26.9773,
    "ARG_OF_PERICENTER": 272.5349,
    "MEAN_ANOMALY": 87.53,
    "EPHEMERIS_TYPE": 0,
    "CLASSIFICATION_TYPE": "U",
    "NORAD_CAT_ID": 64144,
    "ELEMENT_SET_NO": 999,
    "REV_AT_EPOCH": 2734,
    "BSTAR": 0.0013981,
    "MEAN_MOTION_DOT": 0.00038427,
    "MEAN_MOTION_DDOT": 0.0,
    "TLE_LINE1": "1 64144U 25111X   25315.21193028  .00038427  00000+0  13981-2 0  9998",
    "TLE_LINE2": "2 64144  43.0004  26.9773 0001769 272.5349  87.5300 15.27593334 27342",
    "COMMENT": "Grouped by shell and plane from TLE"
  },
  {
    "OBJECT_NAME": "STARLINK-34186",
    "OBJECT_ID": "25111Y",
    "EPOCH": "2025-11-11T05:18:07.745472",
    "MEAN_MOTION": 15.2761397,
    "ECCENTRICITY": 5.69e-05,
    "INCLINATION": 42.9974,
    "RA_OF_ASC_NODE": 27.0443,
    "ARG_OF_PERICENTER": 124.3213,
    "MEAN_ANOMALY": 235.7692,
    "EPHEMERIS_TYPE": 0,
    "CLASSIFICATION_TYPE": "U",
    "NORAD_CAT_ID": 64145,
    "ELEMENT_SET_NO": 999,
    "REV_AT_EPOCH": 2734,
    "BSTAR": 0.0019167000000000001,
    "MEAN_MOTION_DOT": 0.00052917,
    "MEAN_MOTION_DDOT": 0.0,
    "TLE_LINE1": "1 64145U 25111Y   25315.22092298  .00052917  00000+0  19167-2 0  9999",
    "TLE_LINE2": "2 64145  42.9974  27.0443 0000569 124.3213 235.7692 15.27613970 27344",
    "COMMENT": "Grouped by shell and plane from TLE"
  }
]